BEIDOU-2 IGSO-1 (C06)   
1 36828U 10036A   25070.89038008 -.00000158  00000+0  00000+0 0  9990
2 36828  54.2675 167.1435 0045449 210.6204 217.4224  1.00253402 53463
BEIDOU-2 G4 (C04)       
1 37210U 10057A   25071.50234289 -.00000124  00000+0  00000+0 0  9990
2 37210   2.5011  70.4414 0007328 206.8356 233.9535  1.00272108 52664
BEIDOU-2 IGSO-2 (C07)   
1 37256U 10068A   25071.49217789 -.00000172  00000+0  00000+0 0  9999
2 37256  48.3828 277.5299 0038992 211.4261 326.6018  1.00266723 52164
BEIDOU-2 IGSO-3 (C08)   
1 37384U 11013A   25071.34919921 -.00000165  00000+0  00000+0 0  9995
2 37384  61.7551  44.5292 0030501 184.2570 174.2975  1.00290797 51022
BEIDOU-2 IGSO-4 (C09)   
1 37763U 11038A   25070.71938007 -.00000127  00000+0  00000+0 0  9997
2 37763  54.5717 169.8084 0136187 229.5125 121.4785  1.00252591 50003
BEIDOU-2 IGSO-5 (C10)   
1 37948U 11073A   25071.52961520 -.00000153  00000+0  00000+0 0  9996
2 37948  48.5192 277.2302 0100963 219.5366 320.5849  1.00271091 48505
BEIDOU-2 G5 (C05)       
1 38091U 12008A   25071.55376753  .00000045  00000+0  00000+0 0  9995
2 38091   2.4230  71.2437 0013229 251.6303 105.5916  1.00272791 47732
BEIDOU-2 M3 (C11)       
1 38250U 12018A   25069.26036986 -.00000074  00000+0  00000+0 0  9992
2 38250  56.1427 320.4629 0021929 273.6275  86.1707  1.86233696 87307
BEIDOU-2 M4 (C12)       
1 38251U 12018B   25069.19169198 -.00000073  00000+0  00000+0 0  9996
2 38251  56.0469 319.7164 0012934 280.0968  79.8064  1.86232145 87656
BEIDOU-2 M6 (C14)       
1 38775U 12050B   25071.04940575  .00000011  00000+0  00000+0 0  9997
2 38775  56.1380  78.2227 0014204 335.4585  24.5137  1.86231070 84706
BEIDOU-2 G6 (C02)       
1 38953U 12059A   25071.55871971 -.00000187  00000+0  00000+0 0  9998
2 38953   3.2460  78.2356 0010210 299.2817  78.0228  1.00274765 45286
BEIDOU-3S IGSO-1S (C31) 
1 40549U 15019A   25064.62928826 -.00000134  00000+0  00000+0 0  9995
2 40549  50.0790 301.0843 0033884 194.8569 344.3900  1.00246947 36366
BEIDOU-3S M2S (C58)     
1 40748U 15037A   25067.78280619 -.00000072  00000+0  00000+0 0  9998
2 40748  55.2722 318.0180 0009181 271.2088  88.7323  1.86229086 65459
BEIDOU-3S M1S (C57)     
1 40749U 15037B   25071.27122816 -.00000070  00000+0  00000+0 0  9990
2 40749  55.2661 317.8915 0004481  12.4085 347.6571  1.86253828 65526
BEIDOU-3S IGSO-2S (C56) 
1 40938U 15053A   25043.08725264 -.00000066  00000+0  00000+0 0  9997
2 40938  49.9805 264.5883 0052128 186.8108 174.8851  1.00251841 34448
BEIDOU-2 IGSO-6 (C13)   
1 41434U 16021A   25070.92309087 -.00000140  00000+0  00000+0 0  9992
2 41434  59.5767  42.6500 0053676 230.4642 324.2965  1.00263058 32845
BEIDOU-2 G7 (C03)       
1 41586U 16037A   25071.50600464 -.00000366  00000+0  00000+0 0  9995
2 41586   1.5291  67.5202 0010702 333.2742  62.2883  1.00269533  2268
BEIDOU-3 M1 (C19)       
1 43001U 17069A   25071.35212138  .00000010  00000+0  00000+0 0  9990
2 43001  56.2878  78.3436 0012453 304.5783  55.3434  1.86231375 50007
BEIDOU-3 M2 (C20)       
1 43002U 17069B   25070.75292452  .00000012  00000+0  00000+0 0  9993
2 43002  56.2862  78.3997 0009897 323.1766  36.7962  1.86230979 49982
BEIDOU-3 M7 (C27)       
1 43107U 18003A   25071.03655568 -.00000072  00000+0  00000+0 0  9998
2 43107  54.7282 318.3797 0004661  63.3407 296.7602  1.86232492 48745
BEIDOU-3 M8 (C28)       
1 43108U 18003B   25070.44223493 -.00000072  00000+0  00000+0 0  9991
2 43108  54.7216 318.3844 0003238 286.3967  73.6197  1.86230962 48744
BEIDOU-3 M4 (C22)       
1 43207U 18018A   25071.42028084  .00000010  00000+0  00000+0 0  9996
2 43207  56.2467  78.4212 0006927 343.0123  17.0038  1.86231279 48147
BEIDOU-3 M3 (C21)       
1 43208U 18018B   25071.48680633  .00000010  00000+0  00000+0 0  9997
2 43208  56.2461  78.4231 0010025 313.9830  45.9733  1.86231371 48143
BEIDOU-3 M9 (C29)       
1 43245U 18029A   25071.16874416 -.00000067  00000+0  00000+0 0  9992
2 43245  54.6031 316.0558 0000999 355.9812   4.0727  1.86232779 47294
BEIDOU-3 M10 (C30)      
1 43246U 18029B   25071.09954625 -.00000067  00000+0  00000+0 0  9996
2 43246  54.6008 316.0861 0005055  15.2305 344.8392  1.86229050 47276
BEIDOU-2 IGSO-7 (C16)   
1 43539U 18057A   25070.73190039 -.00000173  00000+0  00000+0 0  9991
2 43539  55.1581 167.0688 0085808 235.1411 143.3032  1.00286800 24493
BEIDOU-3 M5 (C23)       
1 43581U 18062A   25068.10325102 -.00000025  00000+0  00000+0 0  9999
2 43581  54.1082 198.1166 0001871 300.8867  59.0509  1.86228605 44974
BEIDOU-3 M6 (C24)       
1 43582U 18062B   25070.11554278 -.00000042  00000+0  00000+0 0  9991
2 43582  54.1074 198.0374 0005838  39.8456 320.1478  1.86229452 45010
BEIDOU-3 M12 (C26)      
1 43602U 18067A   25070.05045825 -.00000043  00000+0  00000+0 0  9996
2 43602  54.2000 196.7457 0007951  34.9158 325.0881  1.86227823 44496
BEIDOU-3 M11 (C25)      
1 43603U 18067B   25070.18422900 -.00000043  00000+0  00000+0 0  9994
2 43603  54.1972 196.7058 0004531  29.0335 330.9436  1.86227327 44528
BEIDOU-3 M13 (C32)      
1 43622U 18072A   25071.21794553  .00000010  00000+0  00000+0 0  9995
2 43622  56.2185  77.9518 0008982 302.4194  57.5326  1.86231235 44055
BEIDOU-3 M14 (C33)      
1 43623U 18072B   25068.39866012  .00000008  00000+0  00000+0 0  9998
2 43623  56.2177  78.0389 0006451 321.5807  38.4145  1.86231144 43995
BEIDOU-3 M16 (C35)      
1 43647U 18078A   25070.17030791 -.00000067  00000+0  00000+0 0  9992
2 43647  54.5006 316.1674 0008244  22.4366 337.6520  1.86232336 43530
BEIDOU-3 M15 (C34)      
1 43648U 18078B   25070.83648937 -.00000067  00000+0  00000+0 0  9993
2 43648  54.4958 316.1461 0005194  29.6808 330.4026  1.86232242 43562
BEIDOU-3 G1 (C59)       
1 43683U 18085A   25071.56987333 -.00000291  00000+0  00000+0 0  9996
2 43683   2.8621 100.6633 0002953 352.8342  62.1066  1.00269788 23434
BEIDOU-3 M17 (C36)      
1 43706U 18093A   25070.99038020 -.00000040  00000+0  00000+0 0  9999
2 43706  54.1908 197.9767 0007089 290.2582  69.6163  1.86228436 42914
BEIDOU-3 M18 (C37)      
1 43707U 18093B   25070.31659708 -.00000042  00000+0  00000+0 0  9990
2 43707  54.1918 197.9912 0005898 330.6963  29.2210  1.86229833 42913
BEIDOU-3 IGSO-1 (C38)   
1 44204U 19023A   25071.48191762 -.00000202  00000+0  00000+0 0  9995
2 44204  58.0420  42.4197 0022282 228.1990 192.8472  1.00274544  2584
BEIDOU-2 G8 (C01)       
1 44231U 19027A   25071.54905850 -.00000260  00000+0  00000+0 0  9991
2 44231   1.4470  74.5900 0006074 247.5901 190.3368  1.00276458 21457
BEIDOU-3 IGSO-2 (C39)   
1 44337U 19035A   25064.85101839 -.00000152  00000+0  00000+0 0  9998
2 44337  55.1994 162.9742 0036515 201.4116 222.6079  1.00257794 20973
BEIDOU-3 M24 (C46)      
1 44542U 19061A   25070.92405260 -.00000040  00000+0  00000+0 0  9991
2 44542  54.4186 198.3185 0007991  13.0297 346.9411  1.86229031 37181
BEIDOU-3 M23 (C45)      
1 44543U 19061B   25071.53127521 -.00000037  00000+0  00000+0 0  9997
2 44543  54.4169 198.2665 0004656   5.8529 313.9010  1.86229325 37193
BEIDOU-3 IGSO-3 (C40)   
1 44709U 19073A   25070.98826671 -.00000146  00000+0  00000+0 0  9995
2 44709  55.5909 285.8733 0041886 181.8361 178.1988  1.00275146 19828
BEIDOU-3 M22 (C44)      
1 44793U 19078A   25070.76757942 -.00000068  00000+0  00000+0 0  9996
2 44793  54.3472 316.0459 0007206  28.7179 331.3754  1.86232076 36034
BEIDOU-3 M21 (C43)      
1 44794U 19078B   25070.89880616 -.00000068  00000+0  00000+0 0  9996
2 44794  54.3206 316.0117 0005239  23.0401 337.0374  1.86227805 36047
BEIDOU-3 M19 (C41)      
1 44864U 19090A   25068.58544280  .00000008  00000+0  00000+0 0  9998
2 44864  56.1506  78.1954 0020125 286.3786 155.6157  1.86231518 35570
BEIDOU-3 M20 (C42)      
1 44865U 19090B   25071.55672146  .00000009  00000+0  00000+0 0  9994
2 44865  56.1549  78.1303 0017781 298.0288  65.7411  1.86231605 35624
BEIDOU-3 G2 (C60)       
1 45344U 20017A   25071.55793778 -.00000153  00000+0  00000+0 0  9994
2 45344   2.7087  38.2188 0003142 307.2318 105.8812  1.00272165 18637
BEIDOU-3 G3 (C61)       
1 45807U 20040A   25071.50600464 -.00000367  00000+0  00000+0 0  9995
2 45807   1.3356  61.3465 0003365 317.0931  84.6553  1.00270449 17444
BEIDOU-3 G4 (C62)       
1 56564U 23066A   25071.50242977 -.00000127  00000+0  00000+0 0  9993
2 56564   1.4584 290.3840 0001655 221.4006 359.4877  1.00271607  6764
BEIDOU-3 M28 (C50)      
1 58654U 23207A   25069.36901947  .00000008  00000+0  00000+0 0  9999
2 58654  55.3382  78.0005 0004932 293.4093  66.5805  1.86232025  8203
BEIDOU-3 M26 (C48)      
1 58655U 23207B   25071.31644757  .00000007  00000+0  00000+0 0  9990
2 58655  55.3420  77.9203 0005668 279.9856  79.9891  1.86231573  8220
BEIDOU-3 M25 (C47)      
1 61186U 24168B   25070.39246705 -.00000071  00000+0  00000+0 0  9990
2 61186  54.8737 318.2739 0004498 308.2264 270.5550  1.86230175  3168
BEIDOU-3 M27 (C49)      
1 61187U 24168C   25071.21502804 -.00000071  00000+0  00000+0 0  9998
2 61187  54.8686 318.2303 0002899   8.7935 176.3208  1.86230414   659
